STARLINK-37643          
1 69449U 26127G   26179.90807514  .00165620  00000+0  10604-2 0  9991
2 69449  53.1590 204.0595 0001208  98.6747 261.4410 15.75306343  3259
STARLINK-37601          
1 69450U 26127H   26179.90774715  .00134624  00000+0  86652-3 0  9996
2 69450  53.1590 204.0569 0001113  91.0670 269.0478 15.75290701  3257
STARLINK-37578          
1 69451U 26127J   26179.89412617  .00236875  00000+0  14995-2 0  9996
2 69451  53.1566 203.9660 0001033 114.4032 245.7097 15.75346598  3258
STARLINK-37577          
1 69452U 26127K   26179.91668981 -.00017795  00000+0 -11220-3 0  9996
2 69452  53.1588 203.6951 0000960  90.1330 115.2398 15.75231989  4536
STARLINK-37500          
1 69453U 26127L   26179.88991998  .00160589  00000+0  10293-2 0  9996
2 69453  53.1568 203.9376 0001270 114.1333 245.9820 15.75299211  3255
STARLINK-37575          
1 69454U 26127M   26179.91668981 -.00025551  00000+0 -16302-3 0  9993
2 69454  53.1590 203.6458 0001032  74.0903 155.1671 15.75237929  4538
STARLINK-37642          
1 69455U 26127N   26179.89445902  .00217797  00000+0  13840-2 0  9993
2 69455  53.1565 203.9670 0001140 120.4138 239.6996 15.75316528  3255
STARLINK-37513          
1 69456U 26127P   26179.79484450  .00300533  00000+0  14669-2 0  9995
2 69456  53.1562 204.0404 0001753  77.4827 282.6392 15.80975719  3242
STARLINK-37563          
1 69457U 26127Q   26179.94429061  .00254158  00000+0  16064-2 0  9992
2 69457  53.1585 203.5604 0000977  58.8671 301.2445 15.75330848  3262
STARLINK-37565          
1 69458U 26127R   26179.91668981  .00009929  00000+0  68928-4 0  9998
2 69458  53.1585 203.5872 0000952  76.0263 180.8554 15.75217274  4532
STARLINK-37498          
1 69459U 26127S   26179.88959241  .00182193  00000+0  11640-2 0  9999
2 69459  53.1563 203.9331 0000618  75.0105 285.0984 15.75303712  3252
STARLINK-37384          
1 69460U 26127T   26179.93942251  .00057238  00000+0  37479-3 0  9990
2 69460  53.1590 203.5283 0001095  81.6298 278.4846 15.75254187  3267
STARLINK-37707          
1 69461U 26127U   26179.93521123  .00184668  00000+0  11795-2 0  9992
2 69461  53.1589 203.4990 0001044 100.2277 259.8862 15.75302297  3266
STARLINK-37525          
1 69462U 26127V   26179.91668981  .00007192  00000+0  51092-4 0  9997
2 69462  53.1583 203.5337 0001034  73.6357 209.0008 15.75217315  4534
STARLINK-37526          
1 69463U 26127W   26179.91668981 -.00008971  00000+0 -54445-4 0  9991
2 69463  53.1577 203.4844 0001025  96.2248 210.3013 15.75225550  4531
STARLINK-37574          
1 69464U 26127X   26179.93067351  .00116655  00000+0  75364-3 0  9997
2 69464  53.1582 203.4674 0001024  96.3984 263.7152 15.75271673  3268
STARLINK-37535          
1 69465U 26127Y   26179.92580371  .00120900  00000+0  78001-3 0  9998
2 69465  53.1570 203.4346 0001266 113.6124 246.5029 15.75286610  3268
STARLINK-37583          
1 69466U 26127Z   26179.91668981  .00104384  00000+0  67843-3 0  9992
2 69466  53.1584 203.1657 0001890  88.5124  12.4495 15.75180899  4539
STARLINK-37546          
1 69467U 26127AA  26179.92159769  .00137309  00000+0  88448-3 0  9990
2 69467  53.1568 203.4036 0001010 110.8842 249.2286 15.75263529  3265
STARLINK-37532          
1 69468U 26127AB  26179.64116594  .00148397  00000+0  74067-3 0  9990
2 69468  53.1569 204.4877 0001426  72.5608 287.5571 15.80927419  3225
STARLINK-37708          
1 69469U 26127AC  26179.92126608  .00110990  00000+0  71769-3 0  9993
2 69469  53.1572 203.3999 0001056 102.1947 257.9192 15.75272482  3269
STARLINK-37686          
1 69470U 26127AD  26179.91705497  .00159864  00000+0  10249-2 0  9991
2 69470  53.1578 203.3734 0000935 106.3335 253.7788 15.75295778  3264
STARLINK-37451          
1 69471U 26127AE  26179.88864265  .00196785  00000+0  97462-3 0  9993
2 69471  53.1570 203.1836 0001358 129.3091 230.8052 15.80948069  3266
DTC TEST OBJECT A       
1 69472U 26128A   26179.92285674  .00022039  00000+0  31247-3 0  9990
2 69472  54.9929 250.7923 0010048 330.2560  29.7904 15.56396604  3052
DTC TEST OBJECT B       
1 69473U 26128B   26178.37654890  .00024134  00000+0  33565-3 0  9992
2 69473  55.0021 257.9040 0009934 325.3113  34.7274 15.56860342  2801
TJS-25                  
1 69474U 26129A   26179.89938429 -.00000355  00000+0  00000+0 0  9999
2 69474   5.9720 330.2733 0002215 296.5718  94.1842  1.00272629   180
STARLINK-37816          
1 69478U 26131A   26179.96257610  .00315241  00000+0  15782-2 0  9998
2 69478  97.2826 200.9233 0001229 132.3330 227.8042 15.80948506  4025
STARLINK-37878          
1 69479U 26131B   26179.96818650  .00199308  00000+0  10138-2 0  9990
2 69479  97.2828 200.9154 0001439  99.9420 260.2010 15.80898670  4023
STARLINK-37817          
1 69480U 26131C   26179.58127444  .00248684  00000+0  12567-2 0  9994
2 69480  97.2822 200.5236 0000717 123.4903 236.6434 15.80914495  3966
STARLINK-37727          
1 69481U 26131D   26179.96032195  .00408755  00000+0  20211-2 0  9997
2 69481  97.2827 200.9259 0000960 127.5691 232.5664 15.80979501  4027
