OBJECT_NAME,OBJECT_ID,EPOCH,MEAN_MOTION,ECCENTRICITY,INCLINATION,RA_OF_ASC_NODE,ARG_OF_PERICENTER,MEAN_ANOMALY,EPHEMERIS_TYPE,CLASSIFICATION_TYPE,NORAD_CAT_ID,ELEMENT_SET_NO,REV_AT_EPOCH,BSTAR,MEAN_MOTION_DOT,MEAN_MOTION_DDOT
STARLINK-37643,2026-127G,2026-06-28T21:47:37.692096,15.75306343,.00012085,53.1590,204.0595,98.6747,261.4410,0,U,69449,999,325,.10604452E-2,.16562E-2,0
STARLINK-37601,2026-127H,2026-06-28T21:47:09.353760,15.75290701,.0001113,53.1590,204.0569,91.0670,269.0478,0,U,69450,999,325,.86651995E-3,.134624E-2,0
STARLINK-37578,2026-127J,2026-06-28T21:27:32.501088,15.75346598,.00010337,53.1566,203.9660,114.4032,245.7097,0,U,69451,999,325,.14994788E-2,.236875E-2,0
STARLINK-37577,2026-127K,2026-06-28T22:00:01.999584,15.75231989,.00009603,53.1588,203.6951,90.1330,115.2398,0,U,69452,999,453,-.11219616E-3,-.17795E-3,0
STARLINK-37500,2026-127L,2026-06-28T21:21:29.086272,15.75299211,.00012704,53.1568,203.9376,114.1333,245.9820,0,U,69453,999,325,.10292856E-2,.160589E-2,0
STARLINK-37575,2026-127M,2026-06-28T22:00:01.999584,15.75237929,.00010328,53.1590,203.6458,74.0903,155.1671,0,U,69454,999,453,-.16302055E-3,-.25551E-3,0
STARLINK-37642,2026-127N,2026-06-28T21:28:01.259328,15.75316528,.00011402,53.1565,203.9670,120.4138,239.6996,0,U,69455,999,325,.13839905E-2,.217797E-2,0
STARLINK-37513,2026-127P,2026-06-28T19:04:34.564800,15.80975719,.00017536,53.1562,204.0404,77.4827,282.6392,0,U,69456,999,324,.14668548E-2,.300533E-2,0
STARLINK-37563,2026-127Q,2026-06-28T22:39:46.708704,15.75330848,.00009772,53.1585,203.5604,58.8671,301.2445,0,U,69457,999,326,.1606371E-2,.254158E-2,0
STARLINK-37565,2026-127R,2026-06-28T22:00:01.999584,15.75217274,.00009525,53.1585,203.5872,76.0263,180.8554,0,U,69458,999,453,.68927832E-4,.9929E-4,0
STARLINK-37498,2026-127S,2026-06-28T21:21:00.784224,15.75303712,.00006181,53.1563,203.9331,75.0105,285.0984,0,U,69459,999,325,.11639718E-2,.182193E-2,0
STARLINK-37384,2026-127T,2026-06-28T22:32:46.104864,15.75254187,.00010953,53.1590,203.5283,81.6298,278.4846,0,U,69460,999,326,.37478957E-3,.57238E-3,0
STARLINK-37707,2026-127U,2026-06-28T22:26:42.250272,15.75302297,.0001044,53.1589,203.4990,100.2277,259.8862,0,U,69461,999,326,.11794654E-2,.184668E-2,0
STARLINK-37525,2026-127V,2026-06-28T22:00:01.999584,15.75217315,.00010343,53.1583,203.5337,73.6357,209.0008,0,U,69462,999,453,.5109165E-4,.7192E-4,0
STARLINK-37526,2026-127W,2026-06-28T22:00:01.999584,15.75225550,.00010253,53.1577,203.4844,96.2248,210.3013,0,U,69463,999,453,-.5444518E-4,-.8971E-4,0
STARLINK-37574,2026-127X,2026-06-28T22:20:10.191264,15.75271673,.00010242,53.1582,203.4674,96.3984,263.7152,0,U,69464,999,326,.75363876E-3,.116655E-2,0
STARLINK-37535,2026-127Y,2026-06-28T22:13:09.440544,15.75286610,.0001266,53.1570,203.4346,113.6124,246.5029,0,U,69465,999,326,.78000619E-3,.1209E-2,0
STARLINK-37583,2026-127Z,2026-06-28T22:00:01.999584,15.75180899,.000189,53.1584,203.1657,88.5124,12.4495,0,U,69466,999,453,.67842562E-3,.104384E-2,0
STARLINK-37546,2026-127AA,2026-06-28T22:07:06.040416,15.75263529,.00010109,53.1568,203.4036,110.8842,249.2286,0,U,69467,999,326,.88448487E-3,.137309E-2,0
STARLINK-37532,2026-127AB,2026-06-28T15:23:16.737216,15.80927419,.00014261,53.1569,204.4877,72.5608,287.5571,0,U,69468,999,322,.74067189E-3,.148397E-2,0
STARLINK-37708,2026-127AC,2026-06-28T22:06:37.389312,15.75272482,.00010562,53.1572,203.3999,102.1947,257.9192,0,U,69469,999,326,.71769378E-3,.11099E-2,0
STARLINK-37686,2026-127AD,2026-06-28T22:00:33.549408,15.75295778,.00009359,53.1578,203.3734,106.3335,253.7788,0,U,69470,999,326,.10248987E-2,.159864E-2,0
STARLINK-37451,2026-127AE,2026-06-28T21:19:38.724960,15.80948069,.00013581,53.1570,203.1836,129.3091,230.8052,0,U,69471,999,326,.97461803E-3,.196785E-2,0
DTC TEST OBJECT A,2026-128A,2026-06-28T22:08:54.822336,15.56396604,.0010048,54.9929,250.7923,330.2560,29.7904,0,U,69472,999,305,.31247317E-3,.22039E-3,0
DTC TEST OBJECT B,2026-128B,2026-06-27T09:02:13.824960,15.56860342,.0009934,55.0021,257.9040,325.3113,34.7274,0,U,69473,999,280,.3356545E-3,.24134E-3,0
TJS-25,2026-129A,2026-06-28T21:35:06.802656,1.00272629,.00022156,5.9720,330.2733,296.5718,94.1842,0,U,69474,999,18,0,-.355E-5,0
STARLINK-37816,2026-131A,2026-06-28T23:06:06.575040,15.80948506,.00012292,97.2826,200.9233,132.3330,227.8042,0,U,69478,999,402,.15781902E-2,.315241E-2,0
STARLINK-37878,2026-131B,2026-06-28T23:14:11.313600,15.80898670,.00014399,97.2828,200.9154,99.9420,260.2010,0,U,69479,999,402,.10138411E-2,.199308E-2,0
STARLINK-37817,2026-131C,2026-06-28T13:57:02.111616,15.80914495,.00007172,97.2822,200.5236,123.4903,236.6434,0,U,69480,999,396,.1256706E-2,.248684E-2,0
STARLINK-37727,2026-131D,2026-06-28T23:02:51.816480,15.80979501,.00009601,97.2827,200.9259,127.5691,232.5664,0,U,69481,999,402,.20211167E-2,.408755E-2,0
